*******************************************************************************
Ephemeris / WWW_USER Tue Mar 11 05:37:47 2025 Pasadena, USA      / Horizons    
*******************************************************************************
Target body name: (2018 RB1)                      {source: JPL#5}
Center body name: Earth (399)                     {source: DE441}
Center-site name: Gemini South Obs., Cerro Pachon
*******************************************************************************
Start time      : A.D. 2018-Aug-14 22:26:00.0000 UT      
Stop  time      : A.D. 2018-Aug-15 11:08:00.0000 UT      
Step-size       : 1 minutes
*******************************************************************************
Target pole/equ : undefined
Target radii    : undefined                                                    
Center geodetic : 289.2634, -30.2406227, 2.71233  {E-lon(deg),Lat(deg),Alt(km)}
Center cylindric: 289.2634,5517.21435,-3194.81213 {E-lon(deg),Dxy(km),Dz(km)}
Center pole/equ : ITRF93                          {East-longitude positive}
Center radii    : 6378.137, 6378.137, 6356.752 km {Equator_a, b, pole_c}       
Target primary  : Sun
Vis. interferer : MOON (R_eq= 1737.400) km        {source: DE441}
Rel. light bend : Sun                             {source: DE441}
Rel. lght bnd GM: 1.3271E+11 km^3/s^2                                          
Small-body perts: Yes                             {source: SB441-N16}
Atmos refraction: NO (AIRLESS)
RA format       : HMS
Time format     : CAL 
Calendar mode   : Mixed Julian/Gregorian
RTS-only print  : NO       
EOP file        : eop.250310.p250606                                           
EOP coverage    : DATA-BASED 1962-JAN-20 TO 2025-MAR-10. PREDICTS-> 2025-JUN-05
Units conversion: 1 au= 149597870.700 km, c= 299792.458 km/s, 1 day= 86400.0 s 
Table cut-offs 1: Elevation (-90.0deg=NO ),Airmass (>38.000=NO), Daylight (YES)
Table cut-offs 2: Solar elongation (  0.0,180.0=NO ),Local Hour Angle( 0.0=NO )
Table cut-offs 3: RA/DEC angular rate (     0.0=NO )                           
*******************************************************************************
Initial IAU76/J2000 heliocentric ecliptic osculating elements (au, days, deg.):
  EPOCH=  2458368.5 ! 2018-Sep-07.00 (TDB)         Residual RMS= .299          
   EC= .2816093255492492   QR= .7991213126369837   TP= 2458438.7854507864      
   OM= 166.9631715555783   W=  267.8210074013559   IN= 5.127543488636634       
  Equivalent ICRF heliocentric cartesian coordinates (au, au/d):
   X= 9.883258176612897E-01  Y=-2.654573099408967E-01  Z=-1.095366816313374E-01
  VX= 1.112505236628486E-04 VY= 1.667631342697191E-02 VZ= 5.559084906068471E-03
Asteroid physical parameters (km, seconds, rotational period in hours):        
   GM= n.a.                RAD= n.a.               ROTPER= n.a.                
   H= 27.9                 G= .150                 B-V= n.a.                   
                           ALBEDO= n.a.            STYP= n.a.                  
*******************************************************************************
 Date__(UT)__HR:MN     R.A._________(ICRF)_________DEC
******************************************************
$$SOE
 2018-Aug-15 10:44 N   22 32 07.030210 +08 50 01.32783
 2018-Aug-15 10:45 N   22 32 07.019724 +08 50 01.41765
 2018-Aug-15 10:46 N   22 32 07.009307 +08 50 01.50740
 2018-Aug-15 10:47 N   22 32 06.998960 +08 50 01.59710
 2018-Aug-15 10:48 N   22 32 06.988682 +08 50 01.68674
 2018-Aug-15 10:49 N   22 32 06.978474 +08 50 01.77632
 2018-Aug-15 10:50 N   22 32 06.968337 +08 50 01.86584
 2018-Aug-15 10:51 N   22 32 06.958269 +08 50 01.95531
 2018-Aug-15 10:52 N   22 32 06.948271 +08 50 02.04472
 2018-Aug-15 10:53 C   22 32 06.938344 +08 50 02.13407
 2018-Aug-15 10:54 C   22 32 06.928486 +08 50 02.22337
 2018-Aug-15 10:55 C   22 32 06.918699 +08 50 02.31262
 2018-Aug-15 10:56 C   22 32 06.908983 +08 50 02.40181
 2018-Aug-15 10:57 C   22 32 06.899336 +08 50 02.49095
 2018-Aug-15 10:58 C   22 32 06.889761 +08 50 02.58004
 2018-Aug-15 10:59 C   22 32 06.880255 +08 50 02.66907
 2018-Aug-15 11:00 C   22 32 06.870821 +08 50 02.75806
 2018-Aug-15 11:01 C   22 32 06.861457 +08 50 02.84700
 2018-Aug-15 11:02 C   22 32 06.852164 +08 50 02.93588
 2018-Aug-15 11:03 C   22 32 06.842941 +08 50 03.02472
 2018-Aug-15 11:04 C   22 32 06.833790 +08 50 03.11352
 2018-Aug-15 11:05 C   22 32 06.824709 +08 50 03.20226
 2018-Aug-15 11:06 C   22 32 06.815699 +08 50 03.29096
 2018-Aug-15 11:07 C   22 32 06.806761 +08 50 03.37962
 2018-Aug-15 11:08 C   22 32 06.797893 +08 50 03.46823
